start=new Date('2023-04-19T00:00:00.000Z').valueOf();
sats=[{"PERIAPSIS":"538.918","SEMIMAJOR_AXIS":"6917.837","ECCENTRICITY":"0.00011330","SITE":"AFETR","OBJECT_NAME":"STARLINK-4088","MEAN_ELEMENT_THEORY":"SGP4","OBJECT_ID":"2022-083Z","REF_FRAME":"TEME","MEAN_ANOMALY":"263.1372","EPHEMERIS_TYPE":"0","TLE_LINE1":"1 53155U 22083Z   23108.79043188  .00002957  00000-0  20369-3 0  9994","MEAN_MOTION_DOT":"0.00002957","LAUNCH_DATE":"2022-07-17","FILE":"3889987","OBJECT_TYPE":"PAYLOAD","TLE_LINE2":"2 53155  53.2160 224.2346 0001133  96.9749 263.1372 15.08854304 42584","TIME_SYSTEM":"UTC","BSTAR":"0.00020369000000","RCS_SIZE":"LARGE","MEAN_MOTION_DDOT":"0.0000000000000","INCLINATION":"53.2160","PERIOD":"95.437","CLASSIFICATION_TYPE":"U","MEAN_MOTION":"15.08854304","RA_OF_ASC_NODE":"224.2346","NORAD_CAT_ID":"53155","APOAPSIS":"540.485","ELEMENT_SET_NO":"999","EPOCH":"2023-04-18T18:58:13.314432","REV_AT_EPOCH":"4258","COUNTRY_CODE":"US","CENTER_NAME":"EARTH","ARG_OF_PERICENTER":"96.9749","GP_ID":"230332666","DECAY_DATE":null},{"PERIOD":"95.439","CLASSIFICATION_TYPE":"U","MEAN_MOTION":"15.08823377","RA_OF_ASC_NODE":"223.5430","RCS_SIZE":"LARGE","MEAN_MOTION_DDOT":"0.0000000000000","INCLINATION":"53.2145","REV_AT_EPOCH":"130","COUNTRY_CODE":"US","CENTER_NAME":"EARTH","ARG_OF_PERICENTER":"64.7276","GP_ID":"230330921","DECAY_DATE":null,"NORAD_CAT_ID":"53156","APOAPSIS":"540.626","ELEMENT_SET_NO":"999","EPOCH":"2023-04-18T22:00:00.999936","MEAN_ELEMENT_THEORY":"SGP4","OBJECT_ID":"2022-083AA","REF_FRAME":"TEME","MEAN_ANOMALY":"321.5307","PERIAPSIS":"538.967","SEMIMAJOR_AXIS":"6917.931","SITE":"AFETR","ECCENTRICITY":"0.00011990","OBJECT_NAME":"STARLINK-4087","FILE":"3889987","OBJECT_TYPE":"PAYLOAD","TIME_SYSTEM":"UTC","TLE_LINE2":"2 53156  53.2145 223.5430 0001199  64.7276 321.5307 15.08823377  1302","BSTAR":"-0.00019900000000","EPHEMERIS_TYPE":"0","TLE_LINE1":"1 53156U 22083AA  23108.91667824 -.00003452  00000-0 -19900-3 0  9990","MEAN_MOTION_DOT":"-0.00003452","LAUNCH_DATE":"2022-07-17"},{"SITE":"AFETR","ECCENTRICITY":"0.00012870","OBJECT_NAME":"STARLINK-4093","SEMIMAJOR_AXIS":"6917.706","PERIAPSIS":"538.681","MEAN_ANOMALY":"273.0474","REF_FRAME":"TEME","MEAN_ELEMENT_THEORY":"SGP4","OBJECT_ID":"2022-083AB","LAUNCH_DATE":"2022-07-17","MEAN_MOTION_DOT":"0.00042985","TLE_LINE1":"1 53157U 22083AB  23108.84932336  .00042985  00000-0  26983-2 0  9996","EPHEMERIS_TYPE":"0","BSTAR":"0.00269830000000","TIME_SYSTEM":"UTC","TLE_LINE2":"2 53157  53.2137 223.9705 0001287  87.0665 273.0474 15.08896906 41961","OBJECT_TYPE":"PAYLOAD","FILE":"3889987","INCLINATION":"53.2137","RCS_SIZE":"LARGE","MEAN_MOTION_DDOT":"0.0000000000000","RA_OF_ASC_NODE":"223.9705","MEAN_MOTION":"15.08896906","CLASSIFICATION_TYPE":"U","PERIOD":"95.434","EPOCH":"2023-04-18T20:23:01.538304","ELEMENT_SET_NO":"999","APOAPSIS":"540.462","NORAD_CAT_ID":"53157","DECAY_DATE":null,"GP_ID":"230331668","CENTER_NAME":"EARTH","ARG_OF_PERICENTER":"87.0665","COUNTRY_CODE":"US","REV_AT_EPOCH":"4196"},{"GP_ID":"230331919","DECAY_DATE":null,"REV_AT_EPOCH":"4194","COUNTRY_CODE":"US","CENTER_NAME":"EARTH","ARG_OF_PERICENTER":"102.8201","ELEMENT_SET_NO":"999","EPOCH":"2023-04-18T17:28:09.212160","NORAD_CAT_ID":"53158","APOAPSIS":"540.799","MEAN_MOTION":"15.08853076","RA_OF_ASC_NODE":"224.5149","PERIOD":"95.437","CLASSIFICATION_TYPE":"U","MEAN_MOTION_DDOT":"0.0000000000000","RCS_SIZE":"LARGE","INCLINATION":"53.2164","BSTAR":"0.00075789000000","FILE":"3889987","OBJECT_TYPE":"PAYLOAD","TIME_SYSTEM":"UTC","TLE_LINE2":"2 53158  53.2164 224.5149 0001581 102.8201 257.2968 15.08853076 41941","TLE_LINE1":"1 53158U 22083AC  23108.72788440  .00011799  00000-0  75789-3 0  9997","MEAN_MOTION_DOT":"0.00011799","LAUNCH_DATE":"2022-07-17","EPHEMERIS_TYPE":"0","OBJECT_ID":"2022-083AC","MEAN_ELEMENT_THEORY":"SGP4","REF_FRAME":"TEME","MEAN_ANOMALY":"257.2968","PERIAPSIS":"538.612","SEMIMAJOR_AXIS":"6917.840","ECCENTRICITY":"0.00015810","SITE":"AFETR","OBJECT_NAME":"STARLINK-4054"},{"PERIOD":"95.438","CLASSIFICATION_TYPE":"U","MEAN_MOTION":"15.08838643","RA_OF_ASC_NODE":"224.8964","MEAN_MOTION_DDOT":"0.0000000000000","RCS_SIZE":"LARGE","INCLINATION":"53.2166","COUNTRY_CODE":"US","REV_AT_EPOCH":"4193","CENTER_NAME":"EARTH","ARG_OF_PERICENTER":"81.2703","GP_ID":"230332167","DECAY_DATE":null,"NORAD_CAT_ID":"53159","APOAPSIS":"540.598","ELEMENT_SET_NO":"999","EPOCH":"2023-04-18T15:26:16.299744","REF_FRAME":"TEME","OBJECT_ID":"2022-083AD","MEAN_ELEMENT_THEORY":"SGP4","MEAN_ANOMALY":"278.8428","PERIAPSIS":"538.901","OBJECT_NAME":"STARLINK-4111","SITE":"AFETR","ECCENTRICITY":"0.00012270","SEMIMAJOR_AXIS":"6917.885","OBJECT_TYPE":"PAYLOAD","FILE":"3889987","TLE_LINE2":"2 53159  53.2166 224.8964 0001227  81.2703 278.8428 15.08838643 41938","TIME_SYSTEM":"UTC","BSTAR":"0.00001609400000","EPHEMERIS_TYPE":"0","TLE_LINE1":"1 53159U 22083AD  23108.64324421 -.00000032  00000-0  16094-4 0  9998","LAUNCH_DATE":"2022-07-17","MEAN_MOTION_DOT":"-0.00000032"},{"MEAN_MOTION":"15.08860317","RA_OF_ASC_NODE":"224.8463","PERIOD":"95.436","CLASSIFICATION_TYPE":"U","MEAN_MOTION_DDOT":"0.0000000000000","RCS_SIZE":"LARGE","INCLINATION":"53.2161","DECAY_DATE":null,"GP_ID":"230331421","REV_AT_EPOCH":"4193","COUNTRY_CODE":"US","CENTER_NAME":"EARTH","ARG_OF_PERICENTER":"88.8736","ELEMENT_SET_NO":"999","EPOCH":"2023-04-18T15:42:09.659808","NORAD_CAT_ID":"53160","APOAPSIS":"540.656","OBJECT_ID":"2022-083AE","MEAN_ELEMENT_THEORY":"SGP4","REF_FRAME":"TEME","MEAN_ANOMALY":"271.2417","PERIAPSIS":"538.711","SEMIMAJOR_AXIS":"6917.818","OBJECT_NAME":"STARLINK-4096","SITE":"AFETR","ECCENTRICITY":"0.00014060","BSTAR":"0.00079737000000","FILE":"3889987","OBJECT_TYPE":"PAYLOAD","TLE_LINE2":"2 53160  53.2161 224.8463 0001406  88.8736 271.2417 15.08860317 41935","TIME_SYSTEM":"UTC","TLE_LINE1":"1 53160U 22083AE  23108.65427847  .00012432  00000-0  79737-3 0  9995","MEAN_MOTION_DOT":"0.00012432","LAUNCH_DATE":"2022-07-17","EPHEMERIS_TYPE":"0"},{"OBJECT_ID":"2022-083AF","MEAN_ELEMENT_THEORY":"SGP4","REF_FRAME":"TEME","MEAN_ANOMALY":"266.1750","PERIAPSIS":"539.040","SEMIMAJOR_AXIS":"6917.866","SITE":"AFETR","ECCENTRICITY":"0.00009980","OBJECT_NAME":"STARLINK-4055","FILE":"3889987","OBJECT_TYPE":"PAYLOAD","TLE_LINE2":"2 53161  53.2168 224.9451 0000998  93.9357 266.1750 15.08844824 41930","TIME_SYSTEM":"UTC","BSTAR":"0.00003438500000","EPHEMERIS_TYPE":"0","TLE_LINE1":"1 53161U 22083AF  23108.63220084  .00000260  00000-0  34385-4 0  9995","MEAN_MOTION_DOT":"0.00000260","LAUNCH_DATE":"2022-07-17","PERIOD":"95.437","CLASSIFICATION_TYPE":"U","MEAN_MOTION":"15.08844824","RA_OF_ASC_NODE":"224.9451","INCLINATION":"53.2168","RCS_SIZE":"LARGE","MEAN_MOTION_DDOT":"0.0000000000000","REV_AT_EPOCH":"4193","COUNTRY_CODE":"US","ARG_OF_PERICENTER":"93.9357","CENTER_NAME":"EARTH","DECAY_DATE":null,"GP_ID":"230331170","NORAD_CAT_ID":"53161","APOAPSIS":"540.421","ELEMENT_SET_NO":"999","EPOCH":"2023-04-18T15:10:22.152576"},{"COUNTRY_CODE":"US","REV_AT_EPOCH":"4196","CENTER_NAME":"EARTH","ARG_OF_PERICENTER":"117.1886","DECAY_DATE":null,"GP_ID":"230332419","NORAD_CAT_ID":"53162","APOAPSIS":"540.876","ELEMENT_SET_NO":"999","EPOCH":"2023-04-18T20:19:10.630848","PERIOD":"95.444","CLASSIFICATION_TYPE":"U","MEAN_MOTION":"15.08734282","RA_OF_ASC_NODE":"223.9917","RCS_SIZE":"LARGE","MEAN_MOTION_DDOT":"0.0000000000000","INCLINATION":"53.2154","OBJECT_TYPE":"PAYLOAD","FILE":"3889987","TLE_LINE2":"2 53162  53.2154 223.9917 0001167 117.1886 242.9226 15.08734282 41966","TIME_SYSTEM":"UTC","BSTAR":"0.00350690000000","EPHEMERIS_TYPE":"0","TLE_LINE1":"1 53162U 22083AG  23108.84665082  .00055804  00000-0  35069-2 0  9992","LAUNCH_DATE":"2022-07-17","MEAN_MOTION_DOT":"0.00055804","REF_FRAME":"TEME","OBJECT_ID":"2022-083AG","MEAN_ELEMENT_THEORY":"SGP4","MEAN_ANOMALY":"242.9226","PERIAPSIS":"539.261","ECCENTRICITY":"0.00011670","SITE":"AFETR","OBJECT_NAME":"STARLINK-4114","SEMIMAJOR_AXIS":"6918.204"},{"NORAD_CAT_ID":"53163","APOAPSIS":"540.343","ELEMENT_SET_NO":"999","EPOCH":"2023-04-18T18:11:55.004928","COUNTRY_CODE":"US","REV_AT_EPOCH":"4195","ARG_OF_PERICENTER":"75.7934","CENTER_NAME":"EARTH","DECAY_DATE":null,"GP_ID":"230332667","INCLINATION":"53.2172","RCS_SIZE":"LARGE","MEAN_MOTION_DDOT":"0.0000000000000","PERIOD":"95.437","CLASSIFICATION_TYPE":"U","MEAN_MOTION":"15.08849620","RA_OF_ASC_NODE":"224.3781","EPHEMERIS_TYPE":"0","TLE_LINE1":"1 53163U 22083AH  23108.75827552  .00006893  00000-0  45060-3 0  9992","LAUNCH_DATE":"2022-07-17","MEAN_MOTION_DOT":"0.00006893","OBJECT_TYPE":"PAYLOAD","FILE":"3889987","TLE_LINE2":"2 53163  53.2172 224.3781 0000906  75.7934 284.3159 15.08849620 41951","TIME_SYSTEM":"UTC","BSTAR":"0.00045060000000","PERIAPSIS":"539.089","SITE":"AFETR","OBJECT_NAME":"STARLINK-4104","ECCENTRICITY":"0.00009060","SEMIMAJOR_AXIS":"6917.851","REF_FRAME":"TEME","MEAN_ELEMENT_THEORY":"SGP4","OBJECT_ID":"2022-083AH","MEAN_ANOMALY":"284.3159"},{"ELEMENT_SET_NO":"999","EPOCH":"2023-04-18T15:15:40.513248","NORAD_CAT_ID":"53164","APOAPSIS":"540.714","GP_ID":"230330922","DECAY_DATE":null,"COUNTRY_CODE":"US","REV_AT_EPOCH":"4193","ARG_OF_PERICENTER":"87.4129","CENTER_NAME":"EARTH","RCS_SIZE":"LARGE","INCLINATION":"53.2166","MEAN_MOTION_DDOT":"0.0000000000000","MEAN_MOTION":"15.08849917","RA_OF_ASC_NODE":"224.9317","PERIOD":"95.437","CLASSIFICATION_TYPE":"U","TLE_LINE1":"1 53164U 22083AJ  23108.63588557  .00011455  00000-0  73641-3 0  9995","LAUNCH_DATE":"2022-07-17","MEAN_MOTION_DOT":"0.00011455","EPHEMERIS_TYPE":"0","BSTAR":"0.00073641000000","OBJECT_TYPE":"PAYLOAD","FILE":"3889987","TIME_SYSTEM":"UTC","TLE_LINE2":"2 53164  53.2166 224.9317 0001444  87.4129 272.7029 15.08849917 41934","PERIAPSIS":"538.716","OBJECT_NAME":"STARLINK-4116","SITE":"AFETR","ECCENTRICITY":"0.00014440","SEMIMAJOR_AXIS":"6917.850","REF_FRAME":"TEME","OBJECT_ID":"2022-083AJ","MEAN_ELEMENT_THEORY":"SGP4","MEAN_ANOMALY":"272.7029"}];
